{"fetched_at":"2026-07-16T17:46:03.568Z","source":"https://celestrak.org/NORAD/elements/gp.php?GROUP=kuiper&FORMAT=JSON","constellation":"kuiper","records":[{"OBJECT_NAME":"KUIPER-00589","OBJECT_ID":"2026-151E","EPOCH":"2026-07-16T06:59:31.027776","CLASSIFICATION_TYPE":"U","MEAN_MOTION":15.37366264,"ECCENTRICITY":0.00052882,"INCLINATION":51.8749,"RA_OF_ASC_NODE":175.084,"ARG_OF_PERICENTER":144.7414,"MEAN_ANOMALY":215.3924,"EPHEMERIS_TYPE":0,"NORAD_CAT_ID":69767,"ELEMENT_SET_NO":999,"REV_AT_EPOCH":218,"BSTAR":-0.00010540984,"MEAN_MOTION_DOT":-0.00004314,"MEAN_MOTION_DDOT":0},{"OBJECT_NAME":"KUIPER-00598","OBJECT_ID":"2026-151F","EPOCH":"2026-07-16T05:50:11.436288","CLASSIFICATION_TYPE":"U","MEAN_MOTION":15.34958937,"ECCENTRICITY":0.00101987,"INCLINATION":51.8674,"RA_OF_ASC_NODE":175.5031,"ARG_OF_PERICENTER":167.1132,"MEAN_ANOMALY":193.0116,"EPHEMERIS_TYPE":0,"NORAD_CAT_ID":69768,"ELEMENT_SET_NO":999,"REV_AT_EPOCH":217,"BSTAR":-0.00030794719,"MEAN_MOTION_DOT":-0.00010991,"MEAN_MOTION_DDOT":0},{"OBJECT_NAME":"KUIPER-00604","OBJECT_ID":"2026-151G","EPOCH":"2026-07-16T06:48:40.220640","CLASSIFICATION_TYPE":"U","MEAN_MOTION":15.38246133,"ECCENTRICITY":0.00027196,"INCLINATION":51.8796,"RA_OF_ASC_NODE":175.0315,"ARG_OF_PERICENTER":110.7286,"MEAN_ANOMALY":249.3993,"EPHEMERIS_TYPE":0,"NORAD_CAT_ID":69769,"ELEMENT_SET_NO":999,"REV_AT_EPOCH":218,"BSTAR":0.00022380524,"MEAN_MOTION_DOT":0.00008181,"MEAN_MOTION_DDOT":0},{"OBJECT_NAME":"KUIPER-00609","OBJECT_ID":"2026-151H","EPOCH":"2026-07-16T06:43:13.108512","CLASSIFICATION_TYPE":"U","MEAN_MOTION":15.38645704,"ECCENTRICITY":0.00011011,"INCLINATION":51.88,"RA_OF_ASC_NODE":175.0063,"ARG_OF_PERICENTER":54.2607,"MEAN_ANOMALY":305.8483,"EPHEMERIS_TYPE":0,"NORAD_CAT_ID":69770,"ELEMENT_SET_NO":999,"REV_AT_EPOCH":218,"BSTAR":0.00021498287,"MEAN_MOTION_DOT":0.00007949,"MEAN_MOTION_DDOT":0},{"OBJECT_NAME":"KUIPER-00611","OBJECT_ID":"2026-151J","EPOCH":"2026-07-16T06:45:52.875072","CLASSIFICATION_TYPE":"U","MEAN_MOTION":15.38465325,"ECCENTRICITY":0.00013846,"INCLINATION":51.8797,"RA_OF_ASC_NODE":175.0146,"ARG_OF_PERICENTER":102.3282,"MEAN_ANOMALY":257.7861,"EPHEMERIS_TYPE":0,"NORAD_CAT_ID":69771,"ELEMENT_SET_NO":999,"REV_AT_EPOCH":218,"BSTAR":0.0003677471,"MEAN_MOTION_DOT":0.00013807,"MEAN_MOTION_DDOT":0},{"OBJECT_NAME":"KUIPER-00612","OBJECT_ID":"2026-151K","EPOCH":"2026-07-16T06:52:33.540384","CLASSIFICATION_TYPE":"U","MEAN_MOTION":15.379533,"ECCENTRICITY":0.00036316,"INCLINATION":51.8789,"RA_OF_ASC_NODE":175.0513,"ARG_OF_PERICENTER":119.5916,"MEAN_ANOMALY":240.5434,"EPHEMERIS_TYPE":0,"NORAD_CAT_ID":69772,"ELEMENT_SET_NO":999,"REV_AT_EPOCH":218,"BSTAR":0.00030838526,"MEAN_MOTION_DOT":0.00011317,"MEAN_MOTION_DDOT":0},{"OBJECT_NAME":"KUIPER-00614","OBJECT_ID":"2026-151L","EPOCH":"2026-07-16T06:49:47.772480","CLASSIFICATION_TYPE":"U","MEAN_MOTION":15.38158063,"ECCENTRICITY":0.00026643,"INCLINATION":51.8801,"RA_OF_ASC_NODE":175.0357,"ARG_OF_PERICENTER":126.1764,"MEAN_ANOMALY":233.947,"EPHEMERIS_TYPE":0,"NORAD_CAT_ID":69773,"ELEMENT_SET_NO":999,"REV_AT_EPOCH":218,"BSTAR":0.00020595685,"MEAN_MOTION_DOT":0.00007474,"MEAN_MOTION_DDOT":0},{"OBJECT_NAME":"KUIPER-00615","OBJECT_ID":"2026-151M","EPOCH":"2026-07-16T07:01:54.354144","CLASSIFICATION_TYPE":"U","MEAN_MOTION":15.37236196,"ECCENTRICITY":0.00061273,"INCLINATION":51.8769,"RA_OF_ASC_NODE":175.0937,"ARG_OF_PERICENTER":151.5894,"MEAN_ANOMALY":208.5428,"EPHEMERIS_TYPE":0,"NORAD_CAT_ID":69774,"ELEMENT_SET_NO":999,"REV_AT_EPOCH":218,"BSTAR":0.00022371562,"MEAN_MOTION_DOT":0.00007907,"MEAN_MOTION_DDOT":0},{"OBJECT_NAME":"KUIPER-00616","OBJECT_ID":"2026-151N","EPOCH":"2026-07-16T06:47:36.003840","CLASSIFICATION_TYPE":"U","MEAN_MOTION":15.38404291,"ECCENTRICITY":0.00030238,"INCLINATION":51.8784,"RA_OF_ASC_NODE":175.0301,"ARG_OF_PERICENTER":124.8331,"MEAN_ANOMALY":235.2941,"EPHEMERIS_TYPE":0,"NORAD_CAT_ID":69775,"ELEMENT_SET_NO":999,"REV_AT_EPOCH":218,"BSTAR":0.00023635538,"MEAN_MOTION_DOT":0.00008709,"MEAN_MOTION_DDOT":0},{"OBJECT_NAME":"KUIPER-00617","OBJECT_ID":"2026-151P","EPOCH":"2026-07-16T06:54:16.954272","CLASSIFICATION_TYPE":"U","MEAN_MOTION":15.37796842,"ECCENTRICITY":0.0004283,"INCLINATION":51.8788,"RA_OF_ASC_NODE":175.0576,"ARG_OF_PERICENTER":141.124,"MEAN_ANOMALY":219.0056,"EPHEMERIS_TYPE":0,"NORAD_CAT_ID":69776,"ELEMENT_SET_NO":999,"REV_AT_EPOCH":218,"BSTAR":0.00029437999,"MEAN_MOTION_DOT":0.00010728,"MEAN_MOTION_DDOT":0},{"OBJECT_NAME":"KUIPER-00619","OBJECT_ID":"2026-151Q","EPOCH":"2026-07-16T06:44:30.466752","CLASSIFICATION_TYPE":"U","MEAN_MOTION":15.38551207,"ECCENTRICITY":0.0001769,"INCLINATION":51.8799,"RA_OF_ASC_NODE":175.0106,"ARG_OF_PERICENTER":69.1057,"MEAN_ANOMALY":291.012,"EPHEMERIS_TYPE":0,"NORAD_CAT_ID":69777,"ELEMENT_SET_NO":999,"REV_AT_EPOCH":218,"BSTAR":0.0002373783,"MEAN_MOTION_DOT":0.00008792,"MEAN_MOTION_DDOT":0},{"OBJECT_NAME":"KUIPER-00621","OBJECT_ID":"2026-151R","EPOCH":"2026-07-16T06:47:28.288320","CLASSIFICATION_TYPE":"U","MEAN_MOTION":15.38340999,"ECCENTRICITY":0.00019449,"INCLINATION":51.8791,"RA_OF_ASC_NODE":175.0277,"ARG_OF_PERICENTER":113.9339,"MEAN_ANOMALY":246.1853,"EPHEMERIS_TYPE":0,"NORAD_CAT_ID":69778,"ELEMENT_SET_NO":999,"REV_AT_EPOCH":218,"BSTAR":0.00023929855,"MEAN_MOTION_DOT":0.00008803,"MEAN_MOTION_DDOT":0},{"OBJECT_NAME":"KUIPER-00622","OBJECT_ID":"2026-151S","EPOCH":"2026-07-16T07:04:38.550432","CLASSIFICATION_TYPE":"U","MEAN_MOTION":15.36996359,"ECCENTRICITY":0.00067226,"INCLINATION":51.873,"RA_OF_ASC_NODE":175.1062,"ARG_OF_PERICENTER":151.86,"MEAN_ANOMALY":208.2751,"EPHEMERIS_TYPE":0,"NORAD_CAT_ID":69779,"ELEMENT_SET_NO":999,"REV_AT_EPOCH":218,"BSTAR":0.00022180958,"MEAN_MOTION_DOT":0.00007774,"MEAN_MOTION_DDOT":0},{"OBJECT_NAME":"KUIPER-00623","OBJECT_ID":"2026-151T","EPOCH":"2026-07-16T06:58:24.890304","CLASSIFICATION_TYPE":"U","MEAN_MOTION":15.37450633,"ECCENTRICITY":0.00067177,"INCLINATION":51.8763,"RA_OF_ASC_NODE":175.0777,"ARG_OF_PERICENTER":131.8232,"MEAN_ANOMALY":228.333,"EPHEMERIS_TYPE":0,"NORAD_CAT_ID":69780,"ELEMENT_SET_NO":999,"REV_AT_EPOCH":218,"BSTAR":0.00077163849,"MEAN_MOTION_DOT":0.00028515,"MEAN_MOTION_DDOT":0},{"OBJECT_NAME":"KUIPER-00626","OBJECT_ID":"2026-151U","EPOCH":"2026-07-16T05:45:56.000736","CLASSIFICATION_TYPE":"U","MEAN_MOTION":15.35429679,"ECCENTRICITY":0.00090309,"INCLINATION":51.8716,"RA_OF_ASC_NODE":175.4846,"ARG_OF_PERICENTER":168.9837,"MEAN_ANOMALY":191.1348,"EPHEMERIS_TYPE":0,"NORAD_CAT_ID":69781,"ELEMENT_SET_NO":999,"REV_AT_EPOCH":217,"BSTAR":-0.0012914861,"MEAN_MOTION_DOT":-0.00045317,"MEAN_MOTION_DDOT":0},{"OBJECT_NAME":"KUIPER-00627","OBJECT_ID":"2026-151V","EPOCH":"2026-07-16T05:48:31.634784","CLASSIFICATION_TYPE":"U","MEAN_MOTION":15.35362231,"ECCENTRICITY":0.0011158,"INCLINATION":51.8695,"RA_OF_ASC_NODE":175.4965,"ARG_OF_PERICENTER":169.2541,"MEAN_ANOMALY":190.8685,"EPHEMERIS_TYPE":0,"NORAD_CAT_ID":69782,"ELEMENT_SET_NO":999,"REV_AT_EPOCH":217,"BSTAR":-0.00029328269,"MEAN_MOTION_DOT":-0.00010624,"MEAN_MOTION_DDOT":0}]}
