KUIPER-00589            
1 69767U 26151E   26197.29133134 -.00004314  00000+0 -10541-3 0  9998
2 69767  51.8749 175.0840 0005288 144.7414 215.3924 15.37366264  2184
KUIPER-00598            
1 69768U 26151F   26197.24318792 -.00010991  00000+0 -30795-3 0  9990
2 69768  51.8674 175.5031 0010198 167.1132 193.0116 15.34958937  2176
KUIPER-00604            
1 69769U 26151G   26197.28379885  .00008181  00000+0  22381-3 0  9993
2 69769  51.8796 175.0315 0002719 110.7286 249.3993 15.38246133  2187
KUIPER-00609            
1 69770U 26151H   26197.28001283  .00007949  00000+0  21498-3 0  9998
2 69770  51.8800 175.0063 0001101  54.2607 305.8483 15.38645704  2187
KUIPER-00611            
1 69771U 26151J   26197.28186198  .00013807  00000+0  36775-3 0  9992
2 69771  51.8797 175.0146 0001384 102.3282 257.7861 15.38465325  2186
KUIPER-00612            
1 69772U 26151K   26197.28649931  .00011317  00000+0  30839-3 0  9991
2 69772  51.8789 175.0513 0003631 119.5916 240.5434 15.37953300  2187
KUIPER-00614            
1 69773U 26151L   26197.28458070  .00007474  00000+0  20596-3 0  9992
2 69773  51.8801 175.0357 0002664 126.1764 233.9470 15.38158063  2189
KUIPER-00615            
1 69774U 26151M   26197.29299021  .00007907  00000+0  22372-3 0  9998
2 69774  51.8769 175.0937 0006127 151.5894 208.5428 15.37236196  2185
KUIPER-00616            
1 69775U 26151N   26197.28305560  .00008709  00000+0  23636-3 0  9999
2 69775  51.8784 175.0301 0003023 124.8331 235.2941 15.38404291  2180
KUIPER-00617            
1 69776U 26151P   26197.28769623  .00010728  00000+0  29438-3 0  9994
2 69776  51.8788 175.0576 0004283 141.1240 219.0056 15.37796842  2181
KUIPER-00619            
1 69777U 26151Q   26197.28090818  .00008792  00000+0  23738-3 0  9993
2 69777  51.8799 175.0106 0001769  69.1057 291.0120 15.38551207  2181
KUIPER-00621            
1 69778U 26151R   26197.28296630  .00008803  00000+0  23930-3 0  9991
2 69778  51.8791 175.0277 0001944 113.9339 246.1853 15.38340999  2187
KUIPER-00622            
1 69779U 26151S   26197.29489063  .00007774  00000+0  22181-3 0  9990
2 69779  51.8730 175.1062 0006722 151.8600 208.2751 15.36996359  2186
KUIPER-00623            
1 69780U 26151T   26197.29056586  .00028515  00000+0  77164-3 0  9999
2 69780  51.8763 175.0777 0006717 131.8232 228.3330 15.37450633  2186
KUIPER-00626            
1 69781U 26151U   26197.24023149 -.00045317  00000+0 -12915-2 0  9997
2 69781  51.8716 175.4846 0009030 168.9837 191.1348 15.35429679  2178
KUIPER-00627            
1 69782U 26151V   26197.24203281 -.00010624  00000+0 -29328-3 0  9995
2 69782  51.8695 175.4965 0011158 169.2541 190.8685 15.35362231  2177
